CELESTIS-17 & SHERPA-FX1
1 47486U 21006CB  26068.64311433  .00007207  00000+0  24301-3 0  9993
2 47486  97.2397 112.1052 0006630 178.1385 181.9882 15.30994801284065
STARLINK-36089          
1 66947U 25286Y   26068.04475590  .00021521  00000+0  73641-3 0  9995
2 66947  53.1601   1.7547 0001212  92.3094 267.8046 15.30209605 15311
